NORAD_CAT_ID,OBJECT_NAME,OBJECT_TYPE,EPOCH,MEAN_MOTION,ECCENTRICITY,INCLINATION,RA_OF_ASC_NODE,ARG_OF_PERICENTER,MEAN_ANOMALY,BSTAR,MEAN_MOTION_DOT,MEAN_MOTION_DDOT,TLE_LINE0,TLE_LINE1,TLE_LINE2,SEMIMAJOR_AXIS,PERIOD,APOGEE,PERIGEE,DECAYED
54062.0,STARLINK-5170,PAYLOAD,2023-10-20 03:56:23,15.08842766,0.0002096,53.2184,296.5199,107.2677,252.8544,0.00015135,2.122e-05,0.0,0 STARLINK-5170,1 54062U 22136M   23293.16416013  .00002122  00000-0  15135-3 0  9997,2 54062  53.2184 296.5199 0002096 107.2677 252.8544 15.08842766 55759,6917.872,95.437,541.187,538.287,0.0
54062.0,STARLINK-5170,PAYLOAD,2023-10-20 10:17:56,15.08841878,0.0001902,53.2176,295.331,97.7326,262.3882,2.4716e-05,1.05e-06,0.0,0 STARLINK-5170,1 54062U 22136M   23293.42912095  .00000105  00000-0  24716-4 0  9992,2 54062  53.2176 295.3310 0001902  97.7326 262.3882 15.08841878 55317,6917.875,95.437,541.055,538.424,0.0
54062.0,STARLINK-5170,PAYLOAD,2023-10-21 00:36:24,15.08831671,0.0001841,53.2176,292.6518,98.084,262.0361,1.4867e-05,-5.2e-07,0.0,0 STARLINK-5170,1 54062U 22136M   23294.02528869 -.00000052  00000-0  14867-4 0  9999,2 54062  53.2176 292.6518 0001841  98.0840 262.0361 15.08831671 55885,6917.906,95.438,541.044,538.497,0.0
54062.0,STARLINK-5170,PAYLOAD,2023-10-21 06:57:57,15.08839378,0.0001699,53.2168,291.4657,92.4922,267.6264,9.8586e-05,1.281e-05,0.0,0 STARLINK-5170,1 54062U 22136M   23294.29024553  .00001281  00000-0  98586-4 0  9993,2 54062  53.2168 291.4657 0001699  92.4922 267.6264 15.08839378 55927,6917.882,95.438,540.923,538.572,0.0
54062.0,STARLINK-5170,PAYLOAD,2023-10-21 16:30:16,15.0884006,0.0001827,53.2176,289.6825,98.377,261.743,0.00016616,2.357e-05,0.0,0 STARLINK-5170,1 54062U 22136M   23294.68768656  .00002357  00000-0  16616-3 0  9993,2 54062  53.2176 289.6825 0001827  98.3770 261.7430 15.08840060 55505,6917.88,95.438,541.009,538.481,0.0
54062.0,STARLINK-5170,PAYLOAD,2023-10-22 06:48:43,15.08855938,0.0001754,53.2174,287.0065,96.1796,263.9396,0.00042193,6.436e-05,0.0,0 STARLINK-5170,1 54062U 22136M   23295.28383998  .00006436  00000-0  42193-3 0  9993,2 54062  53.2174 287.0065 0001754  96.1796 263.9396 15.08855938 56072,6917.832,95.437,540.91,538.483,0.0
54062.0,STARLINK-5170,PAYLOAD,2023-10-22 16:21:02,15.08847897,0.0001748,53.2175,285.2172,78.1492,281.9696,0.00016949,2.411e-05,0.0,0 STARLINK-5170,1 54062U 22136M   23295.68128000  .00002411  00000-0  16949-3 0  9997,2 54062  53.2175 285.2172 0001748  78.1492 281.9696 15.08847897 56133,6917.856,95.437,540.93,538.512,0.0
54062.0,STARLINK-5170,PAYLOAD,2023-10-23 05:04:08,15.08831836,0.000186,53.2174,282.8435,86.9395,273.181,-0.00018667,-3.257e-05,0.0,0 STARLINK-5170,1 54062U 22136M   23296.21120790 -.00003257  00000-0 -18667-3 0  9995,2 54062  53.2174 282.8435 0001860  86.9395 273.1810 15.08831836 56217,6917.905,95.438,541.057,538.484,0.0
54062.0,STARLINK-5170,PAYLOAD,2023-10-23 06:39:31,15.08831414,0.0001787,53.2171,282.5461,86.2729,273.8467,-0.00020464,-3.543e-05,0.0,0 STARLINK-5170,1 54062U 22136M   23296.27744688 -.00003543  00000-0 -20464-3 0  9995,2 54062  53.2171 282.5461 0001787  86.2729 273.8467 15.08831414 55746,6917.907,95.438,541.008,538.535,0.0
54062.0,STARLINK-5170,PAYLOAD,2023-10-24 08:05:42,15.08846034,0.0001798,53.2162,277.7868,83.363,276.7567,0.00076566,0.0001192,0.0,0 STARLINK-5170,1 54062U 22136M   23297.33729205  .00011920  00000-0  76566-3 0  9991,2 54062  53.2162 277.7868 0001798  83.3630 276.7567 15.08846034 56382,6917.862,95.437,540.971,538.483,0.0
54062.0,STARLINK-5170,PAYLOAD,2023-10-25 07:56:28,15.08854008,0.0001766,53.2158,273.3237,100.3319,259.7872,0.00047053,7.211e-05,0.0,0 STARLINK-5170,1 54062U 22136M   23298.33088670  .00007211  00000-0  47053-3 0  9993,2 54062  53.2158 273.3237 0001766 100.3319 259.7872 15.08854008 56535,6917.838,95.437,540.924,538.481,0.0
54062.0,STARLINK-5170,PAYLOAD,2023-10-26 04:36:29,15.08845847,0.0001988,53.2173,269.4561,96.4366,263.6853,0.00018183,2.607e-05,0.0,0 STARLINK-5170,1 54062U 22136M   23299.19200766  .00002607  00000-0  18183-3 0  9996,2 54062  53.2173 269.4561 0001988  96.4366 263.6853 15.08845847 56669,6917.863,95.437,541.103,538.352,0.0
54062.0,STARLINK-5170,PAYLOAD,2023-10-26 07:47:15,15.08847729,0.0001954,53.2175,268.8616,103.2915,256.8295,0.00020988,3.054e-05,0.0,0 STARLINK-5170,1 54062U 22136M   23299.32448730  .00003054  00000-0  20988-3 0  9999,2 54062  53.2175 268.8616 0001954 103.2915 256.8295 15.08847729 56200,6917.857,95.437,541.074,538.37,0.0
54062.0,STARLINK-5170,PAYLOAD,2023-10-26 17:19:34,15.08844986,0.0001654,53.217,267.0789,100.4814,259.6364,0.00014731,2.057e-05,0.0,0 STARLINK-5170,1 54062U 22136M   23299.72192822  .00002057  00000-0  14731-3 0  9992,2 54062  53.2170 267.0789 0001654 100.4814 259.6364 15.08844986 56267,6917.865,95.437,540.874,538.586,0.0
54062.0,STARLINK-5170,PAYLOAD,2023-10-27 07:38:02,15.08869797,0.0001734,53.2162,264.4032,94.9054,265.2137,0.00095361,0.00014934,0.0,0 STARLINK-5170,1 54062U 22136M   23300.31808026  .00014934  00000-0  95361-3 0  9995,2 54062  53.2162 264.4032 0001734  94.9054 265.2137 15.08869797 56833,6917.789,95.436,540.854,538.455,0.0
54062.0,STARLINK-5170,PAYLOAD,2023-10-27 21:56:30,15.08841919,0.0001965,53.2155,261.7264,94.5902,265.5314,2.6316e-05,1.31e-06,0.0,0 STARLINK-5170,1 54062U 22136M   23300.91424539  .00000131  00000-0  26316-4 0  9993,2 54062  53.2155 261.7264 0001965  94.5902 265.5314 15.08841919 56449,6917.875,95.437,541.099,538.38,0.0
54062.0,STARLINK-5170,PAYLOAD,2023-10-28 01:07:17,15.08838256,0.0001617,53.2157,261.1315,101.7504,258.367,-4.1495e-05,-9.48e-06,0.0,0 STARLINK-5170,1 54062U 22136M   23301.04672646 -.00000948  00000-0 -41495-4 0  9995,2 54062  53.2157 261.1315 0001617 101.7504 258.3670 15.08838256 56945,6917.886,95.438,540.869,538.632,0.0
54062.0,STARLINK-5170,PAYLOAD,2023-10-28 13:50:22,15.0883683,0.0001588,53.2168,258.7532,103.831,256.2858,0.00010964,1.457e-05,0.0,0 STARLINK-5170,1 54062U 22136M   23301.57664901  .00001457  00000-0  10964-3 0  9998,2 54062  53.2168 258.7532 0001588 103.8310 256.2858 15.08836830 56542,6917.89,95.438,540.854,538.657,0.0
54062.0,STARLINK-5170,PAYLOAD,2023-10-28 21:47:18,15.08830761,0.0001752,53.2172,257.2683,107.5625,252.5558,7.094e-05,8.41e-06,0.0,0 STARLINK-5170,1 54062U 22136M   23301.90785329  .00000841  00000-0  70940-4 0  9990,2 54062  53.2172 257.2683 0001752 107.5625 252.5558 15.08830761 56599,6917.909,95.438,540.986,538.562,0.0
54062.0,STARLINK-5170,PAYLOAD,2023-10-29 04:08:48,15.08937427,0.000138,53.2173,256.0769,109.486,250.6281,0.0025774,0.00041081,0.0,0 STARLINK-5170,1 54062U 22136M   23302.17278167  .00041081  00000-0  25774-2 0  9991,2 54062  53.2173 256.0769 0001380 109.4860 250.6281 15.08937427 57119,6917.583,95.431,540.402,538.493,0.0
54062.0,STARLINK-5170,PAYLOAD,2023-10-29 13:41:10,15.08827053,0.0001272,53.2171,254.2926,92.5642,267.5496,-3.0066e-05,-7.66e-06,0.0,0 STARLINK-5170,1 54062U 22136M   23302.57025537 -.00000766  00000-0 -30066-4 0  9995,2 54062  53.2171 254.2926 0001272  92.5642 267.5496 15.08827053 56692,6917.92,95.438,540.665,538.905,0.0
54062.0,STARLINK-5170,PAYLOAD,2023-10-29 20:02:42,15.08839096,0.000195,53.2184,253.1069,104.2232,255.8977,0.00023694,3.485e-05,0.0,0 STARLINK-5170,1 54062U 22136M   23302.83521568  .00003485  00000-0  23694-3 0  9996,2 54062  53.2184 253.1069 0001950 104.2232 255.8977 15.08839096 57214,6917.883,95.438,541.097,538.399,0.0
54062.0,STARLINK-5170,PAYLOAD,2023-10-30 13:31:57,15.08837115,0.0001761,53.2173,249.8355,97.888,262.2312,0.00014273,1.984e-05,0.0,0 STARLINK-5170,1 54062U 22136M   23303.56385793  .00001984  00000-0  14273-3 0  9990,2 54062  53.2173 249.8355 0001761  97.8880 262.2312 15.08837115 57325,6917.889,95.438,540.972,538.536,0.0
54062.0,STARLINK-5170,PAYLOAD,2023-10-31 13:22:44,15.08842823,0.0001706,53.2178,245.3731,88.6537,271.4651,0.00038103,5.782e-05,0.0,0 STARLINK-5170,1 54062U 22136M   23304.55746150  .00005782  00000-0  38103-3 0  9996,2 54062  53.2178 245.3731 0001706  88.6537 271.4651 15.08842823 56997,6917.872,95.437,540.917,538.557,0.0
54062.0,STARLINK-5170,PAYLOAD,2023-11-01 03:41:12,15.0885791,0.0001435,53.2169,242.6986,88.2817,271.834,0.00074976,0.0001167,0.0,0 STARLINK-5170,1 54062U 22136M   23305.15361761  .00011670  00000-0  74976-3 0  9995,2 54062  53.2169 242.6986 0001435  88.2817 271.8340 15.08857910 57561,6917.826,95.436,540.683,538.698,0.0
54062.0,STARLINK-5170,PAYLOAD,2023-11-01 13:13:31,15.08850821,0.0001665,53.2183,240.9151,89.8746,270.2436,0.00031847,4.786e-05,0.0,0 STARLINK-5170,1 54062U 22136M   23305.55105749  .00004786  00000-0  31847-3 0  9991,2 54062  53.2183 240.9151 0001665  89.8746 270.2436 15.08850821 57142,6917.847,95.437,540.864,538.56,0.0
54062.0,STARLINK-5170,PAYLOAD,2023-11-01 19:35:03,15.08848618,0.0001624,53.2173,239.7259,86.6451,273.4727,0.00018761,2.7e-05,0.0,0 STARLINK-5170,1 54062U 22136M   23305.81601757  .00002700  00000-0  18761-3 0  9994,2 54062  53.2173 239.7259 0001624  86.6451 273.4727 15.08848618 57665,6917.854,95.437,540.843,538.596,0.0
54062.0,STARLINK-5170,PAYLOAD,2023-11-02 13:04:18,15.08841653,0.0001678,53.2178,236.453,85.7695,274.3489,5.8908e-05,6.5e-06,0.0,0 STARLINK-5170,1 54062U 22136M   23306.54465760  .00000650  00000-0  58908-4 0  9997,2 54062  53.2178 236.4530 0001678  85.7695 274.3489 15.08841653 57774,6917.875,95.437,540.901,538.58,0.0
54062.0,STARLINK-5170,PAYLOAD,2023-11-02 22:36:37,15.08840946,0.0001419,53.218,234.6684,92.7584,267.3571,0.00010381,1.365e-05,0.0,0 STARLINK-5170,1 54062U 22136M   23306.94209730  .00001365  00000-0  10381-3 0  9990,2 54062  53.2180 234.6684 0001419  92.7584 267.3571 15.08840946 57357,6917.877,95.437,540.724,538.761,0.0
54062.0,STARLINK-5170,PAYLOAD,2023-11-03 04:58:09,15.08847224,0.0001518,53.2174,233.4776,96.6935,263.423,0.00040366,6.143e-05,0.0,0 STARLINK-5170,1 54062U 22136M   23307.20705602  .00006143  00000-0  40366-3 0  9994,2 54062  53.2174 233.4776 0001518  96.6935 263.4230 15.08847224 57391,6917.858,95.437,540.773,538.673,0.0
